[{"OBJECT_NAME":"ONEWEB-0553","OBJECT_ID":"2023-043K","EPOCH":"2026-02-06T00:16:05.220192","MEAN_MOTION":13.16594557,"ECCENTRICITY":0.00018626,"INCLINATION":87.9006,"RA_OF_ASC_NODE":254.8858,"ARG_OF_PERICENTER":81.2754,"MEAN_ANOMALY":278.8587,"EPHEMERIS_TYPE":0,"CLASSIFICATION_TYPE":"U","NORAD_CAT_ID":56055,"ELEMENT_SET_NO":999,"REV_AT_EPOCH":14171,"BSTAR":-7.9257145e-5,"MEAN_MOTION_DOT":-1.7e-7,"MEAN_MOTION_DDOT":0},{"OBJECT_NAME":"ONEWEB-0554","OBJECT_ID":"2023-043L","EPOCH":"2026-02-06T01:47:16.592640","MEAN_MOTION":13.16594048,"ECCENTRICITY":0.00015229,"INCLINATION":87.9004,"RA_OF_ASC_NODE":254.8839,"ARG_OF_PERICENTER":74.057,"MEAN_ANOMALY":286.0729,"EPHEMERIS_TYPE":0,"CLASSIFICATION_TYPE":"U","NORAD_CAT_ID":56056,"ELEMENT_SET_NO":999,"REV_AT_EPOCH":14170,"BSTAR":-6.9483e-7,"MEAN_MOTION_DOT":1.3e-7,"MEAN_MOTION_DDOT":0},{"OBJECT_NAME":"ONEWEB-0555","OBJECT_ID":"2023-043M","EPOCH":"2026-02-06T00:52:34.568544","MEAN_MOTION":13.16594447,"ECCENTRICITY":0.00020577,"INCLINATION":87.9006,"RA_OF_ASC_NODE":254.876,"ARG_OF_PERICENTER":85.2178,"MEAN_ANOMALY":274.9188,"EPHEMERIS_TYPE":0,"CLASSIFICATION_TYPE":"U","NORAD_CAT_ID":56057,"ELEMENT_SET_NO":999,"REV_AT_EPOCH":14170,"BSTAR":0.00025017543,"MEAN_MOTION_DOT":1.09e-6,"MEAN_MOTION_DDOT":0},{"OBJECT_NAME":"ONEWEB-0557","OBJECT_ID":"2023-043N","EPOCH":"2026-02-06T01:13:05.600064","MEAN_MOTION":13.16595055,"ECCENTRICITY":0.00023252,"INCLINATION":87.9009,"RA_OF_ASC_NODE":254.8854,"ARG_OF_PERICENTER":58.6738,"MEAN_ANOMALY":301.462,"EPHEMERIS_TYPE":0,"CLASSIFICATION_TYPE":"U","NORAD_CAT_ID":56058,"ELEMENT_SET_NO":999,"REV_AT_EPOCH":14170,"BSTAR":0.00035601492,"MEAN_MOTION_DOT":1.49e-6,"MEAN_MOTION_DDOT":0},{"OBJECT_NAME":"ONEWEB-0558","OBJECT_ID":"2023-043P","EPOCH":"2026-02-06T02:39:17.736480","MEAN_MOTION":13.21827965,"ECCENTRICITY":0.00014494,"INCLINATION":87.9186,"RA_OF_ASC_NODE":270.1289,"ARG_OF_PERICENTER":104.0406,"MEAN_ANOMALY":256.0889,"EPHEMERIS_TYPE":0,"CLASSIFICATION_TYPE":"U","NORAD_CAT_ID":56059,"ELEMENT_SET_NO":999,"REV_AT_EPOCH":14092,"BSTAR":-6.1394436e-5,"MEAN_MOTION_DOT":-1.2e-7,"MEAN_MOTION_DDOT":0},{"OBJECT_NAME":"ONEWEB-0559","OBJECT_ID":"2023-043Q","EPOCH":"2026-02-05T15:28:42.183552","MEAN_MOTION":13.2182593,"ECCENTRICITY":0.0001277,"INCLINATION":87.9189,"RA_OF_ASC_NODE":270.2162,"ARG_OF_PERICENTER":89.5594,"MEAN_ANOMALY":270.5686,"EPHEMERIS_TYPE":0,"CLASSIFICATION_TYPE":"U","NORAD_CAT_ID":56060,"ELEMENT_SET_NO":999,"REV_AT_EPOCH":14087,"BSTAR":5.7537e-5,"MEAN_MOTION_DOT":3.7e-7,"MEAN_MOTION_DDOT":0},{"OBJECT_NAME":"ONEWEB-0566","OBJECT_ID":"2023-043R","EPOCH":"2026-02-06T02:13:13.686528","MEAN_MOTION":13.21824073,"ECCENTRICITY":0.00013261,"INCLINATION":87.9189,"RA_OF_ASC_NODE":270.1258,"ARG_OF_PERICENTER":93.6198,"MEAN_ANOMALY":266.5088,"EPHEMERIS_TYPE":0,"CLASSIFICATION_TYPE":"U","NORAD_CAT_ID":56061,"ELEMENT_SET_NO":999,"REV_AT_EPOCH":14091,"BSTAR":3.9391605e-5,"MEAN_MOTION_DOT":2.9e-7,"MEAN_MOTION_DDOT":0},{"OBJECT_NAME":"ONEWEB-0568","OBJECT_ID":"2023-043S","EPOCH":"2026-02-05T23:48:44.161056","MEAN_MOTION":13.16594919,"ECCENTRICITY":0.00018011,"INCLINATION":87.9011,"RA_OF_ASC_NODE":254.8863,"ARG_OF_PERICENTER":85.1348,"MEAN_ANOMALY":274.9988,"EPHEMERIS_TYPE":0,"CLASSIFICATION_TYPE":"U","NORAD_CAT_ID":56062,"ELEMENT_SET_NO":999,"REV_AT_EPOCH":14171,"BSTAR":-9.9296755e-5,"MEAN_MOTION_DOT":-2.5e-7,"MEAN_MOTION_DDOT":0},{"OBJECT_NAME":"ONEWEB-0574","OBJECT_ID":"2023-043T","EPOCH":"2026-02-06T02:03:45.142560","MEAN_MOTION":13.21828077,"ECCENTRICITY":0.00015201,"INCLINATION":87.9201,"RA_OF_ASC_NODE":270.116,"ARG_OF_PERICENTER":78.3745,"MEAN_ANOMALY":281.756,"EPHEMERIS_TYPE":0,"CLASSIFICATION_TYPE":"U","NORAD_CAT_ID":56063,"ELEMENT_SET_NO":999,"REV_AT_EPOCH":14095,"BSTAR":1.4942826e-5,"MEAN_MOTION_DOT":1.9e-7,"MEAN_MOTION_DDOT":0},{"OBJECT_NAME":"ONEWEB-0575","OBJECT_ID":"2023-043U","EPOCH":"2026-02-06T01:29:02.898240","MEAN_MOTION":13.16594494,"ECCENTRICITY":0.00017339,"INCLINATION":87.9008,"RA_OF_ASC_NODE":254.8709,"ARG_OF_PERICENTER":72.8179,"MEAN_ANOMALY":287.3142,"EPHEMERIS_TYPE":0,"CLASSIFICATION_TYPE":"U","NORAD_CAT_ID":56064,"ELEMENT_SET_NO":999,"REV_AT_EPOCH":14171,"BSTAR":0.00011578137,"MEAN_MOTION_DOT":5.7e-7,"MEAN_MOTION_DDOT":0},{"OBJECT_NAME":"ONEWEB-0576","OBJECT_ID":"2023-043V","EPOCH":"2026-02-06T02:51:07.489152","MEAN_MOTION":13.16594544,"ECCENTRICITY":0.00016543,"INCLINATION":87.9007,"RA_OF_ASC_NODE":254.862,"ARG_OF_PERICENTER":80.7407,"MEAN_ANOMALY":279.3911,"EPHEMERIS_TYPE":0,"CLASSIFICATION_TYPE":"U","NORAD_CAT_ID":56065,"ELEMENT_SET_NO":999,"REV_AT_EPOCH":14171,"BSTAR":0.00019667739,"MEAN_MOTION_DOT":8.8e-7,"MEAN_MOTION_DDOT":0},{"OBJECT_NAME":"ONEWEB-0577","OBJECT_ID":"2023-043W","EPOCH":"2026-02-06T01:10:48.614592","MEAN_MOTION":13.16594385,"ECCENTRICITY":0.00017709,"INCLINATION":87.9009,"RA_OF_ASC_NODE":254.8746,"ARG_OF_PERICENTER":58.6762,"MEAN_ANOMALY":301.4542,"EPHEMERIS_TYPE":0,"CLASSIFICATION_TYPE":"U","NORAD_CAT_ID":56066,"ELEMENT_SET_NO":999,"REV_AT_EPOCH":14173,"BSTAR":-3.4652511e-5,"MEAN_MOTION_DOT":0,"MEAN_MOTION_DDOT":0},{"OBJECT_NAME":"ONEWEB-0578","OBJECT_ID":"2023-043X","EPOCH":"2026-02-06T01:44:48.062400","MEAN_MOTION":13.21825186,"ECCENTRICITY":0.00018525,"INCLINATION":87.919,"RA_OF_ASC_NODE":270.1287,"ARG_OF_PERICENTER":84.4282,"MEAN_ANOMALY":275.7063,"EPHEMERIS_TYPE":0,"CLASSIFICATION_TYPE":"U","NORAD_CAT_ID":56067,"ELEMENT_SET_NO":999,"REV_AT_EPOCH":14091,"BSTAR":2.542026e-5,"MEAN_MOTION_DOT":2.4e-7,"MEAN_MOTION_DDOT":0},{"OBJECT_NAME":"ONEWEB-0579","OBJECT_ID":"2023-043Y","EPOCH":"2026-02-06T01:30:34.308576","MEAN_MOTION":13.21827954,"ECCENTRICITY":0.00012507,"INCLINATION":87.9195,"RA_OF_ASC_NODE":270.1191,"ARG_OF_PERICENTER":83.1714,"MEAN_ANOMALY":276.9562,"EPHEMERIS_TYPE":0,"CLASSIFICATION_TYPE":"U","NORAD_CAT_ID":56068,"ELEMENT_SET_NO":999,"REV_AT_EPOCH":14092,"BSTAR":0.00013671968,"MEAN_MOTION_DOT":6.9e-7,"MEAN_MOTION_DDOT":0},{"OBJECT_NAME":"ONEWEB-0581","OBJECT_ID":"2023-043Z","EPOCH":"2026-02-06T01:19:55.793568","MEAN_MOTION":13.16594002,"ECCENTRICITY":0.00014746,"INCLINATION":87.9004,"RA_OF_ASC_NODE":254.8861,"ARG_OF_PERICENTER":68.7878,"MEAN_ANOMALY":291.3411,"EPHEMERIS_TYPE":0,"CLASSIFICATION_TYPE":"U","NORAD_CAT_ID":56069,"ELEMENT_SET_NO":999,"REV_AT_EPOCH":14170,"BSTAR":0.00012414925,"MEAN_MOTION_DOT":6.0e-7,"MEAN_MOTION_DDOT":0},{"OBJECT_NAME":"ONEWEB-0609","OBJECT_ID":"2023-043AA","EPOCH":"2026-02-05T16:20:06.940896","MEAN_MOTION":13.15548094,"ECCENTRICITY":0.0001481,"INCLINATION":87.8989,"RA_OF_ASC_NODE":285.474,"ARG_OF_PERICENTER":81.8062,"MEAN_ANOMALY":278.3236,"EPHEMERIS_TYPE":0,"CLASSIFICATION_TYPE":"U","NORAD_CAT_ID":56070,"ELEMENT_SET_NO":999,"REV_AT_EPOCH":13914,"BSTAR":0.00027347,"MEAN_MOTION_DOT":1.16e-6,"MEAN_MOTION_DDOT":0},{"OBJECT_NAME":"ONEWEB-0613","OBJECT_ID":"2023-043AB","EPOCH":"2026-02-06T03:10:24.599424","MEAN_MOTION":13.15549232,"ECCENTRICITY":0.00012457,"INCLINATION":87.8982,"RA_OF_ASC_NODE":285.3947,"ARG_OF_PERICENTER":86.687,"MEAN_ANOMALY":273.4403,"EPHEMERIS_TYPE":0,"CLASSIFICATION_TYPE":"U","NORAD_CAT_ID":56071,"ELEMENT_SET_NO":999,"REV_AT_EPOCH":13920,"BSTAR":0.00044733399,"MEAN_MOTION_DOT":1.81e-6,"MEAN_MOTION_DDOT":0}]
