ONEWEB-0553             
1 56055U 23043K   26037.01117153 -.00000017  00000+0 -79257-4 0  9993
2 56055  87.9006 254.8858 0001862  81.2754 278.8587 13.16594557141712
ONEWEB-0554             
1 56056U 23043L   26037.07449760  .00000013  00000+0 -69483-6 0  9999
2 56056  87.9004 254.8839 0001522  74.0570 286.0729 13.16594048141702
ONEWEB-0555             
1 56057U 23043M   26037.03651121  .00000109  00000+0  25018-3 0  9990
2 56057  87.9006 254.8760 0002057  85.2178 274.9188 13.16594447141708
ONEWEB-0557             
1 56058U 23043N   26037.05075926  .00000149  00000+0  35601-3 0  9999
2 56058  87.9009 254.8854 0002325  58.6738 301.4620 13.16595055141703
ONEWEB-0558             
1 56059U 23043P   26037.11062195 -.00000012  00000+0 -61394-4 0  9991
2 56059  87.9186 270.1289 0001449 104.0406 256.0889 13.21827965140926
ONEWEB-0559             
1 56060U 23043Q   26036.64493268  .00000037  00000+0  57537-4 0  9998
2 56060  87.9189 270.2162 0001277  89.5594 270.5686 13.21825930140876
ONEWEB-0566             
1 56061U 23043R   26037.09251952  .00000029  00000+0  39392-4 0  9991
2 56061  87.9189 270.1258 0001326  93.6198 266.5088 13.21824073140916
ONEWEB-0568             
1 56062U 23043S   26036.99217779 -.00000025  00000+0 -99297-4 0  9997
2 56062  87.9011 254.8863 0001801  85.1348 274.9988 13.16594919141711
ONEWEB-0574             
1 56063U 23043T   26037.08593915  .00000019  00000+0  14943-4 0  9994
2 56063  87.9201 270.1160 0001520  78.3745 281.7560 13.21828077140955
ONEWEB-0575             
1 56064U 23043U   26037.06183910  .00000057  00000+0  11578-3 0  9995
2 56064  87.9008 254.8709 0001733  72.8179 287.3142 13.16594494141715
ONEWEB-0576             
1 56065U 23043V   26037.11883668  .00000088  00000+0  19668-3 0  9991
2 56065  87.9007 254.8620 0001654  80.7407 279.3911 13.16594544141712
ONEWEB-0577             
1 56066U 23043W   26037.04917378  .00000000  00000+0 -34653-4 0  9997
2 56066  87.9009 254.8746 0001770  58.6762 301.4542 13.16594385141733
ONEWEB-0578             
1 56067U 23043X   26037.07277850  .00000024  00000+0  25420-4 0  9992
2 56067  87.9190 270.1287 0001852  84.4282 275.7063 13.21825186140913
ONEWEB-0579             
1 56068U 23043Y   26037.06289709  .00000069  00000+0  13672-3 0  9992
2 56068  87.9195 270.1191 0001250  83.1714 276.9562 13.21827954140924
ONEWEB-0581             
1 56069U 23043Z   26037.05550687  .00000060  00000+0  12415-3 0  9993
2 56069  87.9004 254.8861 0001474  68.7878 291.3411 13.16594002141705
ONEWEB-0609             
1 56070U 23043AA  26036.68063589  .00000116  00000+0  27347-3 0  9995
2 56070  87.8989 285.4740 0001481  81.8062 278.3236 13.15548094139147
ONEWEB-0613             
1 56071U 23043AB  26037.13222916  .00000181  00000+0  44733-3 0  9998
2 56071  87.8982 285.3947 0001245  86.6870 273.4403 13.15549232139201
